{
  "type": "FeatureCollection",
  "features": [
    {
      "type": "Feature",
      "properties": {
        "norad_id": 33986,
        "name": "COSMOS 2251 DEB",
        "group": "cosmos-2251-debris",
        "lat": -23.858726814326715,
        "lon": -71.87595404266301,
        "alt_km": 728.3906966552149,
        "timestamp": "2025-12-16T15:45:51.439145+00:00",
        "meta_object_name": "COSMOS 2251 DEB",
        "meta_object_id": "1993-036FV",
        "meta_epoch": "2025-12-15T21:50:14.180640",
        "meta_mean_motion": 14.43222372,
        "meta_eccentricity": 0.0040656,
        "meta_inclination": 74.0366,
        "meta_ra_of_asc_node": 296.7839,
        "meta_arg_of_pericenter": 8.7733,
        "meta_mean_anomaly": 47.3685,
        "meta_ephemeris_type": 0,
        "meta_classification_type": "U",
        "meta_norad_cat_id": 33986,
        "meta_element_set_no": 999,
        "meta_rev_at_epoch": 88074,
        "meta_bstar": 0.00057535823,
        "meta_mean_motion_dot": 1.928e-05,
        "meta_mean_motion_ddot": 0,
        "tle_line1": "1 33986U 93036FV  25349.90988635  .00001928  00000+0  57536-3 0  9999",
        "tle_line2": "2 33986  74.0366 296.7839 0040656   8.7733  47.3685 14.43222372880740"
      },
      "geometry": {
        "type": "Point",
        "coordinates": [
          -71.87595404266301,
          -23.858726814326715
        ]
      }
    },
    {
      "type": "Feature",
      "properties": {
        "norad_id": 33990,
        "name": "COSMOS 2251 DEB",
        "group": "cosmos-2251-debris",
        "lat": 27.948235593172466,
        "lon": 90.90872752256614,
        "alt_km": 1326.2745574627934,
        "timestamp": "2025-12-16T15:45:51.439155+00:00",
        "meta_object_name": "COSMOS 2251 DEB",
        "meta_object_id": "1993-036FZ",
        "meta_epoch": "2025-12-15T21:29:14.263872",
        "meta_mean_motion": 13.49998696,
        "meta_eccentricity": 0.04075114,
        "meta_inclination": 73.9283,
        "meta_ra_of_asc_node": 280.9283,
        "meta_arg_of_pericenter": 300.67,
        "meta_mean_anomaly": 112.8186,
        "meta_ephemeris_type": 0,
        "meta_classification_type": "U",
        "meta_norad_cat_id": 33990,
        "meta_element_set_no": 999,
        "meta_rev_at_epoch": 82772,
        "meta_bstar": 0.0010489494,
        "meta_mean_motion_dot": 1.094e-05,
        "meta_mean_motion_ddot": 0,
        "tle_line1": "1 33990U 93036FZ  25349.89530398  .00001094  00000+0  10489-2 0  9990",
        "tle_line2": "2 33990  73.9283 280.9283 0407511 300.6700 112.8186 13.49998696827721"
      },
      "geometry": {
        "type": "Point",
        "coordinates": [
          90.90872752256614,
          27.948235593172466
        ]
      }
    },
    {
      "type": "Feature",
      "properties": {
        "norad_id": 33992,
        "name": "COSMOS 2251 DEB",
        "group": "cosmos-2251-debris",
        "lat": 23.299862641304713,
        "lon": 143.09441604123006,
        "alt_km": 658.8943841675737,
        "timestamp": "2025-12-16T15:45:51.439165+00:00",
        "meta_object_name": "COSMOS 2251 DEB",
        "meta_object_id": "1993-036GB",
        "meta_epoch": "2025-12-15T22:59:24.503136",
        "meta_mean_motion": 14.66241532,
        "meta_eccentricity": 0.00516517,
        "meta_inclination": 74.0238,
        "meta_ra_of_asc_node": 331.5291,
        "meta_arg_of_pericenter": 88.408,
        "meta_mean_anomaly": 338.9185,
        "meta_ephemeris_type": 0,
        "meta_classification_type": "U",
        "meta_norad_cat_id": 33992,
        "meta_element_set_no": 999,
        "meta_rev_at_epoch": 89172,
        "meta_bstar": 0.00054877554,
        "meta_mean_motion_dot": 3.053e-05,
        "meta_mean_motion_ddot": 0,
        "tle_line1": "1 33992U 93036GB  25349.95792249  .00003053  00000+0  54878-3 0  9992",
        "tle_line2": "2 33992  74.0238 331.5291 0051651  88.4080 338.9185 14.66241532891720"
      },
      "geometry": {
        "type": "Point",
        "coordinates": [
          143.09441604123006,
          23.299862641304713
        ]
      }
    },
    {
      "type": "Feature",
      "properties": {
        "norad_id": 33994,
        "name": "COSMOS 2251 DEB",
        "group": "cosmos-2251-debris",
        "lat": 68.52201190786627,
        "lon": -130.18262108455846,
        "alt_km": 755.5745386586168,
        "timestamp": "2025-12-16T15:45:51.439175+00:00",
        "meta_object_name": "COSMOS 2251 DEB",
        "meta_object_id": "1993-036GD",
        "meta_epoch": "2025-12-15T23:16:18.605856",
        "meta_mean_motion": 14.41216591,
        "meta_eccentricity": 0.00237521,
        "meta_inclination": 74.0415,
        "meta_ra_of_asc_node": 184.4326,
        "meta_arg_of_pericenter": 318.207,
        "meta_mean_anomaly": 153.0863,
        "meta_ephemeris_type": 0,
        "meta_classification_type": "U",
        "meta_norad_cat_id": 33994,
        "meta_element_set_no": 999,
        "meta_rev_at_epoch": 88466,
        "meta_bstar": 8.8811165e-05,
        "meta_mean_motion_dot": 2.61e-06,
        "meta_mean_motion_ddot": 0,
        "tle_line1": "1 33994U 93036GD  25349.96965979  .00000261  00000+0  88811-4 0  9990",
        "tle_line2": "2 33994  74.0415 184.4326 0023752 318.2070 153.0863 14.41216591884661"
      },
      "geometry": {
        "type": "Point",
        "coordinates": [
          -130.18262108455846,
          68.52201190786627
        ]
      }
    },
    {
      "type": "Feature",
      "properties": {
        "norad_id": 33995,
        "name": "COSMOS 2251 DEB",
        "group": "cosmos-2251-debris",
        "lat": 56.33714760354241,
        "lon": 137.59688522369657,
        "alt_km": 752.0542897720907,
        "timestamp": "2025-12-16T15:45:51.439185+00:00",
        "meta_object_name": "COSMOS 2251 DEB",
        "meta_object_id": "1993-036GE",
        "meta_epoch": "2025-12-15T17:43:53.245344",
        "meta_mean_motion": 14.34789623,
        "meta_eccentricity": 0.00598921,
        "meta_inclination": 74.0609,
        "meta_ra_of_asc_node": 113.8646,
        "meta_arg_of_pericenter": 127.4558,
        "meta_mean_anomaly": 233.2064,
        "meta_ephemeris_type": 0,
        "meta_classification_type": "U",
        "meta_norad_cat_id": 33995,
        "meta_element_set_no": 999,
        "meta_rev_at_epoch": 87562,
        "meta_bstar": 0.00069637998,
        "meta_mean_motion_dot": 1.99e-05,
        "meta_mean_motion_ddot": 0,
        "tle_line1": "1 33995U 93036GE  25349.73881071  .00001990  00000+0  69638-3 0  9991",
        "tle_line2": "2 33995  74.0609 113.8646 0059892 127.4558 233.2064 14.34789623875626"
      },
      "geometry": {
        "type": "Point",
        "coordinates": [
          137.59688522369657,
          56.33714760354241
        ]
      }
    },
    {
      "type": "Feature",
      "properties": {
        "norad_id": 33999,
        "name": "COSMOS 2251 DEB",
        "group": "cosmos-2251-debris",
        "lat": -4.047245117357279,
        "lon": 44.13435543941983,
        "alt_km": 609.1983205859087,
        "timestamp": "2025-12-16T15:45:51.439195+00:00",
        "meta_object_name": "COSMOS 2251 DEB",
        "meta_object_id": "1993-036GJ",
        "meta_epoch": "2025-12-15T17:54:00.897408",
        "meta_mean_motion": 14.83431625,
        "meta_eccentricity": 0.00444384,
        "meta_inclination": 73.9189,
        "meta_ra_of_asc_node": 224.7811,
        "meta_arg_of_pericenter": 119.4893,
        "meta_mean_anomaly": 241.0728,
        "meta_ephemeris_type": 0,
        "meta_classification_type": "U",
        "meta_norad_cat_id": 33999,
        "meta_element_set_no": 999,
        "meta_rev_at_epoch": 89295,
        "meta_bstar": 0.0007912315,
        "meta_mean_motion_dot": 6.581e-05,
        "meta_mean_motion_ddot": 0,
        "tle_line1": "1 33999U 93036GJ  25349.74584372  .00006581  00000+0  79123-3 0  9991",
        "tle_line2": "2 33999  73.9189 224.7811 0044438 119.4893 241.0728 14.83431625892959"
      },
      "geometry": {
        "type": "Point",
        "coordinates": [
          44.13435543941983,
          -4.047245117357279
        ]
      }
    },
    {
      "type": "Feature",
      "properties": {
        "norad_id": 34001,
        "name": "COSMOS 2251 DEB",
        "group": "cosmos-2251-debris",
        "lat": -62.99168798178614,
        "lon": 128.54416264355444,
        "alt_km": 778.9979412487955,
        "timestamp": "2025-12-16T15:45:51.439205+00:00",
        "meta_object_name": "COSMOS 2251 DEB",
        "meta_object_id": "1993-036GL",
        "meta_epoch": "2025-12-15T20:29:46.786272",
        "meta_mean_motion": 14.37102448,
        "meta_eccentricity": 0.00201058,
        "meta_inclination": 74.0389,
        "meta_ra_of_asc_node": 275.8609,
        "meta_arg_of_pericenter": 356.1349,
        "meta_mean_anomaly": 60.1327,
        "meta_ephemeris_type": 0,
        "meta_classification_type": "U",
        "meta_norad_cat_id": 34001,
        "meta_element_set_no": 999,
        "meta_rev_at_epoch": 88191,
        "meta_bstar": 0.00019431558,
        "meta_mean_motion_dot": 5.52e-06,
        "meta_mean_motion_ddot": 0,
        "tle_line1": "1 34001U 93036GL  25349.85401373  .00000552  00000+0  19432-3 0  9996",
        "tle_line2": "2 34001  74.0389 275.8609 0020105 356.1349  60.1327 14.37102448881917"
      },
      "geometry": {
        "type": "Point",
        "coordinates": [
          128.54416264355444,
          -62.99168798178614
        ]
      }
    }
  ]
}